[{"OBJECT_NAME":"STARLINK-5469","OBJECT_ID":"2023-021X","EPOCH":"2026-03-09T18:09:20.580480","MEAN_MOTION":14.98331595,"ECCENTRICITY":0.0003345,"INCLINATION":70.0017,"RA_OF_ASC_NODE":184.1969,"ARG_OF_PERICENTER":270.4714,"MEAN_ANOMALY":89.6062,"EPHEMERIS_TYPE":0,"CLASSIFICATION_TYPE":"U","NORAD_CAT_ID":55649,"ELEMENT_SET_NO":999,"REV_AT_EPOCH":16880,"BSTAR":1.2115723e-5,"MEAN_MOTION_DOT":5.2e-7,"MEAN_MOTION_DDOT":0},{"OBJECT_NAME":"SITRO-AIS 14","OBJECT_ID":"2024-199T","EPOCH":"2026-03-09T22:54:28.226304","MEAN_MOTION":14.97122201,"ECCENTRICITY":0.00071847,"INCLINATION":97.3313,"RA_OF_ASC_NODE":274.5243,"ARG_OF_PERICENTER":48.7211,"MEAN_ANOMALY":311.463,"EPHEMERIS_TYPE":0,"CLASSIFICATION_TYPE":"U","NORAD_CAT_ID":61752,"ELEMENT_SET_NO":999,"REV_AT_EPOCH":12027,"BSTAR":0.00031190269,"MEAN_MOTION_DOT":3.549e-5,"MEAN_MOTION_DDOT":0}]
